324P/LaSagra,e,21.4029,270.5849,57.5457,3.094669,0.1810435,0.15363035,121.2849,03/06.0/2023,2000,g 13.0,4.0
# From MPEC 2022-TA0
325P/Yang-Gao,e,16.6954,257.4904,343.8480,3.526826,0.1488086,0.59355525,50.8493,03/06.0/2023,2000,g 14.0,4.0
# From MPC103849
326P/Hill,e,2.4711,99.8087,278.6535,4.062835,0.1203539,0.31832341,323.9514,03/06.0/2023,2000,g 13.5,4.0
# From MPEC 2023-B57
327P/VanNess,e,36.2505,173.9836,185.0194,3.562077,0.1466051,0.56317098,27.0682,03/06.0/2023,2000,g 16.0,4.0
# From MPC109148
328P/LONEOS-Tucker,e,17.6722,341.6230,30.5925,4.190443,0.1148985,0.55273549,301.4132,03/06.0/2023,2000,g 14.5,4.0
# From MPC101101
329P/LINEAR-Catalina,e,21.7078,87.6548,343.5512,5.187851,0.0834109,0.67827751,221.1435,03/06.0/2023,2000,g 13.5,4.0
# From MPEC 2022-K19
330P/Catalina,e,15.7121,293.0817,188.8465,6.621250,0.0578488,0.54897301,137.8630,03/06.0/2023,2000,g 12.0,4.0
# From MPEC 2022-C56
331P/Gibbs,e,9.7397,216.7518,184.5530,3.005224,0.1891859,0.04130027,167.0984,03/06.0/2023,2000,g 12.0,4.0
# From MPEC 2016-K18
332P/Ikeya-Murakami,e,9.3802,3.7836,152.2981,3.087573,0.1816679,0.48930301,102.5893,03/06.0/2023,2000,g 18.0,4.0
# From MPEC 2016-EI8
332P-B/Ikeya-Murakami,e,9.3805,3.8028,152.3711,3.082329,0.1821317,0.48970701,359.9699,03/17.0/2016,2000,g 19.0,4.0
# From MPEC 2016-K18
332P-C/Ikeya-Murakami,e,9.3793,3.7841,152.2894,3.087539,0.1816709,0.48930850,102.6052,03/06.0/2023,2000,g 16.5,4.0
# From MPEC 2016-ED0
332P-D/Ikeya-Murakami,e,9.3761,3.7923,152.4393,3.081138,0.1822373,0.48977814,359.9486,03/17.0/2016,2000,g 19.0,4.0
# From MPEC 2016-ED0
332P-E/Ikeya-Murakami,e,9.3774,3.8228,152.2825,3.079877,0.1823493,0.48922008,359.9889,03/17.0/2016,2000,g 21.0,4.0
# From MPEC 2016-ED0
332P-F/Ikeya-Murakami,e,9.5293,3.4757,152.8203,3.163214,0.1751908,0.49918860,359.8501,03/17.0/2016,2000,g 21.0,4.0
# From MPEC 2016-ED0
332P-G/Ikeya-Murakami,e,9.2523,3.6955,154.4000,3.050519,0.1849880,0.49200362,359.9006,03/19.0/2016,2000,g 19.0,4.0
# From MPC100285
332P-H/Ikeya-Murakami,e,9.3798,3.7838,152.2900,3.087723,0.1816547,0.48934390,102.5310,03/06.0/2023,2000,g 19.0,4.0
# From MPEC 2016-ED0
332P-I/Ikeya-Murakami,e,9.3791,3.8048,152.3297,3.081767,0.1821815,0.48955490,359.9360,03/17.0/2016,2000,g 20.5,2.0
# From MPEC 2016-EI8
332P-J/Ikeya-Murakami,e,9.4296,3.6729,152.7712,3.115165,0.1792596,0.49429435,359.8613,03/17.0/2016,2000,g 20.5,2.0
# From MPEC 2020-L06
333P/LINEAR,e,132.0116,115.6694,25.9860,4.221509,0.1136325,0.73639907,287.9304,03/06.0/2023,2000,g 15.0,4.0
# From MPC115888
334P/NEAT,e,20.3926,90.5709,90.0817,6.835192,0.0551541,0.35058749,115.9046,03/06.0/2023,2000,g 10.5,4.0
# From MPEC 2021-U31
335P/Gibbs,e,7.2929,330.8439,162.3047,3.578467,0.1455991,0.54624778,29.9924,03/06.0/2023,2000,g 17.0,4.0
# From MPC105244
336P/McNaught,e,17.8252,298.2720,308.6772,5.036459,0.0871999,0.44387963,194.1409,03/06.0/2023,2000,g 13.5,4.0
# From MPEC 2022-YN2
337P/WISE,e,15.3683,106.0388,161.0984,3.287998,0.1653129,0.49686009,40.9554,03/06.0/2023,2000,g 17.0,4.0
# From MPEC 2022-K19
338P/McNaught,e,25.3864,9.7990,4.5119,3.893328,0.1282988,0.41213378,293.8187,03/06.0/2023,2000,g 12.0,4.0
# From MPC101101
339P/Gibbs,e,5.7332,172.7227,27.4678,3.700131,0.1384773,0.63561890,335.3570,03/06.0/2023,2000,g 17.0,4.0
# From MPC133426
340P/Boattini,e,2.0779,291.6497,36.0364,4.249921,0.1124949,0.28069599,257.9981,03/06.0/2023,2000,g 14.3,4.0
# From MPEC 2022-K19
341P/Gibbs,e,3.7972,29.9678,312.2775,4.290219,0.1109136,0.41571163,273.6752,03/06.0/2023,2000,g 12.5,4.0
# From MPC101101
342P/SOHO,e,11.6670,27.7143,73.2468,3.041253,0.1858340,0.98280847,0.0000,10/19.2833/2021,2000,g  9.0,4.0
# From MPEC 2022-K19
343P/NEAT-LONEOS,e,5.5918,257.1023,137.4968,5.457825,0.0772991,0.58520748,171.9590,03/06.0/2023,2000,g 14.0,4.0
# From MPC109148
344P/Read,e,3.4956,273.1155,140.4592,4.860611,0.0919746,0.42331901,212.7095,03/06.0/2023,2000,g 13.0,4.0
# From MPEC 2022-K19
345P/LINEAR,e,2.7275,154.5141,196.6208,4.034203,0.1216375,0.22148853,293.9133,03/06.0/2023,2000,g 12.0,4.0
# From MPEC 2022-K19
346P/Catalina,e,22.2053,102.4520,335.9663,4.472878,0.1041894,0.50335208,230.3346,03/06.0/2023,2000,g 14.0,4.0
# From MPEC 2022-K19
347P/PANSTARRS,e,11.7540,261.0208,98.4339,3.604418,0.1440295,0.38617271,340.4006,03/06.0/2023,2000,g 15.0,4.0
# From MPEC 2022-ED3
348P/PANSTARRS,e,17.7372,312.9361,135.6872,3.151736,0.1761486,0.30711284,68.0610,03/06.0/2023,2000,g 14.0,4.0
# From MPEC 2022-K19
349P/Lemmon,e,5.4898,331.7558,255.8725,3.576636,0.1457108,0.29840256,294.6604,03/06.0/2023,2000,g 14.0,4.0
# From MPC111775
350P/McNaught,e,7.3644,65.2941,139.7004,4.084073,0.1194163,0.09354109,227.8863,03/06.0/2023,2000,g 14.0,4.0
# From MPC105244
351P/Wiegert-PANSTARRS,e,12.7783,283.4177,352.6660,4.439458,0.1053681,0.29504175,280.8024,03/06.0/2023,2000,g 12.5,4.0
# From MPC110086
352P/Skiff,e,21.0136,28.0006,309.3651,6.646140,0.0575241,0.61769323,119.7782,03/06.0/2023,2000,g 11.5,4.0
# From MPEC 2020-AA5
353P/McNaught,e,28.4099,121.5201,230.4867,4.170579,0.1157203,0.47034256,219.6684,03/06.0/2023,2000,g 14.5,4.0
# From MPC105545
354P/LINEAR,e,5.2513,320.1092,132.6202,2.290950,0.2842371,0.12506679,296.9772,03/06.0/2023,2000,g 15.5,4.0
# From MPEC 2023-CD7
355P/LINEAR-NEAT,e,11.0470,51.4334,336.3167,3.469133,0.1525361,0.50788857,300.1436,03/06.0/2023,2000,g 15.5,2.0
# From MPEC 2022-F14
356P/WISE,e,9.6375,160.7920,226.0672,4.156511,0.1163083,0.35595713,221.1736,03/06.0/2023,2000,g 14.0,4.0
# From MPC114609
357P/Hill,e,6.3164,44.5580,1.4119,4.457606,0.1047253,0.43585813,182.2070,03/06.0/2023,2000,g 15.5,4.0
# From MPEC 2020-HN5
358P/PANSTARRS,e,11.0602,85.7016,299.7739,3.146867,0.1765576,0.23904186,315.8356,03/06.0/2023,2000,g 18.0,4.0
# From MPC110086
359P/LONEOS,e,10.2650,149.7499,200.2848,4.640303,0.0986017,0.32407234,199.2169,03/06.0/2023,2000,g 13.5,4.0
# From MPC108599
360P/WISE,e,24.1111,2.1906,354.2110,3.699554,0.1385096,0.49930410,279.9947,03/06.0/2023,2000,g 19.5,6.0
# From MPEC 2023-CD7
361P/Spacewatch,e,13.9035,203.2592,219.0068,4.934963,0.0899038,0.43911853,153.3774,03/06.0/2023,2000,g 12.0,4.0
# From MPEC 2017-V13
362P/,e,15.5570,192.5448,53.5813,3.972224,0.1244955,0.27871472,297.4368,03/06.0/2023,2000,g 12.9,2.0
# From MPC114609
363P/Lemmon,e,5.4029,146.8727,340.8996,3.569122,0.1461713,0.51970769,269.6349,03/06.0/2023,2000,g 17.5,4.0
# From MPEC 2023-D72
364P/PANSTARRS,e,12.1350,46.1547,212.0096,2.880386,0.2016174,0.72180592,346.0851,03/06.0/2023,2000,g 17.0,2.0
# From MPC111775
365P/PANSTARRS,e,9.8433,86.3109,67.7434,3.157170,0.1756941,0.58137800,321.8118,03/06.0/2023,2000,g 17.0,4.0
# From MPC114610
366P/Spacewatch,e,8.8569,70.7628,153.0310,3.497172,0.1507053,0.34806932,254.9177,03/06.0/2023,2000,g 15.0,4.0
# From MPC112395
367P/Catalina,e,8.4593,58.7176,172.7786,3.508100,0.1500017,0.27972374,258.2840,03/06.0/2023,2000,g 17.5,2.0
# From MPC114610
368P/NEAT,e,15.4828,257.8385,118.9371,5.529965,0.0757915,0.62672443,123.7102,03/06.0/2023,2000,g 14.0,4.0
# From MPC114610
369P/Hill,e,10.3245,47.2921,13.1583,4.381328,0.1074720,0.55548873,172.0949,03/06.0/2023,2000,g 15.0,4.0
# From MPEC 2021-F20
370P/NEAT,e,19.4265,55.0673,356.7127,6.434965,0.0603788,0.61539741,104.3885,03/06.0/2023,2000,g 13.0,4.0
# From MPC114610
371P/LINEAR-Skiff,e,17.3862,67.2396,308.5689,4.180614,0.1153039,0.47710310,185.8166,03/06.0/2023,2000,g 16.0,4.0
# From MPEC 2020-K19
372P/McNaught,e,9.5060,325.8159,27.6565,4.508356,0.1029620,0.15242289,164.0756,03/06.0/2023,2000,g 13.5,4.0
# From MPEC 2021-F20
373P/Rinner,e,13.7702,231.9646,221.0033,3.800568,0.1330244,0.39299829,189.7963,03/06.0/2023,2000,g 14.5,4.0
# From MPC114610
374P/Larson,e,10.7664,7.9134,51.4534,4.971403,0.0889172,0.46345374,134.6130,03/06.0/2023,2000,g 14.0,4.0
# From MPEC 2021-F20
375P/Hill,e,17.3619,359.9419,119.3641,5.549550,0.0753906,0.65905274,115.7976,03/06.0/2023,2000,g 16.0,4.0
# From MPEC 2022-K19
376P/LONEOS,e,1.1700,313.4444,285.0342,5.765446,0.0711958,0.51571222,89.8610,03/06.0/2023,2000,g 12.5,4.0
# From MPEC 2022-N37
377P/Scotti,e,9.0242,226.0667,355.0015,6.702904,0.0567949,0.25131914,54.9644,03/06.0/2023,2000,g  9.5,4.0
# From MPEC 2023-D41
378P/McNaught,e,19.0679,94.0447,193.5940,6.322640,0.0619950,0.46720460,54.0136,03/06.0/2023,2000,g 12.0,4.0
# From MPC115889
379P/Spacewatch,e,12.4517,183.8361,30.5479,3.505222,0.1501864,0.34505260,196.6829,03/06.0/2023,2000,g 15.0,4.0
# From MPEC 2023-C45
380P/PANSTARRS,e,8.0766,130.7738,86.6516,4.412100,0.1063497,0.34326382,147.3456,03/06.0/2023,2000,g 12.5,4.0
# From MPEC 2021-J28
381P/LINEAR-Spacewatch,e,28.3770,173.7622,173.3013,7.137638,0.0516859,0.68174499,64.9105,03/06.0/2023,2000,g 17.5,2.0
# From MPEC 2022-Y15
382P/Larson,e,8.4175,173.5907,165.3008,6.148906,0.0646409,0.28666166,27.8899,03/06.0/2023,2000,g  8.0,4.0
# From MPEC 2022-OB6
383P/Christensen,e,12.3264,207.8195,133.7847,3.547090,0.1475353,0.59932217,180.9403,03/06.0/2023,2000,g 18.0,4.0
# From MPEC 2022-OB6
384P/Kowalski,e,7.2837,354.2220,37.6496,2.899729,0.1996034,0.61622436,247.5993,03/06.0/2023,2000,g 19.5,4.0
# From MPEC 2021-F20
385P/Hill,e,16.8308,357.0586,44.3528,4.288513,0.1109798,0.40208070,140.6288,03/06.0/2023,2000,g 13.0,4.0
# From MPEC 2021-L04
386P/PANSTARRS,e,15.2324,134.9324,353.1060,4.052470,0.1208160,0.41646477,112.2299,03/06.0/2023,2000,g 14.5,4.0
# From MPEC 2021-J28
387P/Boattini,e,8.9321,259.2454,162.8069,4.796974,0.0938108,0.73682346,119.6957,03/06.0/2023,2000,g 15.0,4.0
# From MPEC 2021-S45
388P/Gibbs,e,23.8892,37.0480,42.2924,5.241017,0.0821449,0.61877959,108.4828,03/06.0/2023,2000,g 13.0,4.0
# From MPEC 2022-OB6
389P/Siding Spring,e,160.0856,218.8810,249.3973,5.633460,0.0737125,0.70449175,85.6777,03/06.0/2023,2000,g 16.0,4.0
# From MPEC 2022-OB6
390P/Gibbs,e,18.5555,152.2684,232.4032,5.810691,0.0703659,0.70743810,75.8732,03/06.0/2023,2000,g 12.0,4.0
# From MPEC 2021-F20
391P/Kowalski,e,21.2658,124.7385,187.3357,4.684702,0.0972033,0.11963305,175.9185,03/06.0/2023,2000,g  8.0,4.0
# From MPEC 2021-J28
